[{"OBJECT_NAME":"GALAXY 33 (G-33)","OBJECT_ID":"2022-128A","EPOCH":"2026-03-07T03:30:38.669760","MEAN_MOTION":1.00270814,"ECCENTRICITY":0.0001911,"INCLINATION":0.0163,"RA_OF_ASC_NODE":152.3242,"ARG_OF_PERICENTER":204.8794,"MEAN_ANOMALY":87.3266,"EPHEMERIS_TYPE":0,"CLASSIFICATION_TYPE":"U","NORAD_CAT_ID":54026,"ELEMENT_SET_NO":999,"REV_AT_EPOCH":1271,"BSTAR":0,"MEAN_MOTION_DOT":0,"MEAN_MOTION_DDOT":0},{"OBJECT_NAME":"GALAXY 34 (G-34)","OBJECT_ID":"2022-128B","EPOCH":"2026-03-07T03:30:38.669760","MEAN_MOTION":1.00270784,"ECCENTRICITY":0.0001505,"INCLINATION":0.0168,"RA_OF_ASC_NODE":120.3937,"ARG_OF_PERICENTER":222.7807,"MEAN_ANOMALY":105.3338,"EPHEMERIS_TYPE":0,"CLASSIFICATION_TYPE":"U","NORAD_CAT_ID":54027,"ELEMENT_SET_NO":999,"REV_AT_EPOCH":1288,"BSTAR":0,"MEAN_MOTION_DOT":5.7e-7,"MEAN_MOTION_DDOT":0},{"OBJECT_NAME":"GALAXY 31 (G-31)","OBJECT_ID":"2022-153A","EPOCH":"2026-03-07T03:22:38.728128","MEAN_MOTION":1.00272198,"ECCENTRICITY":0.0001464,"INCLINATION":0.0096,"RA_OF_ASC_NODE":172.2156,"ARG_OF_PERICENTER":187.333,"MEAN_ANOMALY":94.9509,"EPHEMERIS_TYPE":0,"CLASSIFICATION_TYPE":"U","NORAD_CAT_ID":54243,"ELEMENT_SET_NO":999,"REV_AT_EPOCH":610,"BSTAR":0,"MEAN_MOTION_DOT":1.1e-7,"MEAN_MOTION_DDOT":0},{"OBJECT_NAME":"GALAXY 32 (G-32)","OBJECT_ID":"2022-153B","EPOCH":"2026-03-07T03:12:59.520672","MEAN_MOTION":1.00272304,"ECCENTRICITY":0.0002991,"INCLINATION":0.0185,"RA_OF_ASC_NODE":107.4788,"ARG_OF_PERICENTER":249.2635,"MEAN_ANOMALY":125.3419,"EPHEMERIS_TYPE":0,"CLASSIFICATION_TYPE":"U","NORAD_CAT_ID":54244,"ELEMENT_SET_NO":999,"REV_AT_EPOCH":1212,"BSTAR":0,"MEAN_MOTION_DOT":-1.77e-6,"MEAN_MOTION_DDOT":0},{"OBJECT_NAME":"GALAXY 35 (G-35)","OBJECT_ID":"2022-170A","EPOCH":"2026-03-07T03:06:38.820672","MEAN_MOTION":1.00270925,"ECCENTRICITY":0.0002009,"INCLINATION":0.0095,"RA_OF_ASC_NODE":178.4956,"ARG_OF_PERICENTER":171.9506,"MEAN_ANOMALY":127.9389,"EPHEMERIS_TYPE":0,"CLASSIFICATION_TYPE":"U","NORAD_CAT_ID":54741,"ELEMENT_SET_NO":999,"REV_AT_EPOCH":1187,"BSTAR":0,"MEAN_MOTION_DOT":-1.64e-6,"MEAN_MOTION_DDOT":0},{"OBJECT_NAME":"GALAXY 36 (G-36)","OBJECT_ID":"2022-170B","EPOCH":"2026-03-07T02:58:38.621568","MEAN_MOTION":1.00272349,"ECCENTRICITY":0.0002148,"INCLINATION":0.0202,"RA_OF_ASC_NODE":134.0049,"ARG_OF_PERICENTER":266.8186,"MEAN_ANOMALY":79.6596,"EPHEMERIS_TYPE":0,"CLASSIFICATION_TYPE":"U","NORAD_CAT_ID":54742,"ELEMENT_SET_NO":999,"REV_AT_EPOCH":1175,"BSTAR":0,"MEAN_MOTION_DOT":-1.88e-6,"MEAN_MOTION_DDOT":0},{"OBJECT_NAME":"GALAXY 37 (G-37)","OBJECT_ID":"2023-112A","EPOCH":"2026-03-07T03:30:38.669760","MEAN_MOTION":1.00272255,"ECCENTRICITY":0.0002034,"INCLINATION":0.0142,"RA_OF_ASC_NODE":106.2109,"ARG_OF_PERICENTER":246.2989,"MEAN_ANOMALY":97.9905,"EPHEMERIS_TYPE":0,"CLASSIFICATION_TYPE":"U","NORAD_CAT_ID":57493,"ELEMENT_SET_NO":999,"REV_AT_EPOCH":951,"BSTAR":0,"MEAN_MOTION_DOT":4.6e-7,"MEAN_MOTION_DDOT":0}]
