GALAXY 33 (G-33)        
1 54026U 22128A   26066.14628090  .00000000  00000+0  00000+0 0  9990
2 54026   0.0163 152.3242 0001911 204.8794  87.3266  1.00270814 12710
GALAXY 34 (G-34)        
1 54027U 22128B   26066.14628090  .00000057  00000+0  00000+0 0  9993
2 54027   0.0168 120.3937 0001505 222.7807 105.3338  1.00270784 12880
GALAXY 31 (G-31)        
1 54243U 22153A   26066.14072602  .00000011  00000+0  00000+0 0  9993
2 54243   0.0096 172.2156 0001464 187.3330  94.9509  1.00272198  6102
GALAXY 32 (G-32)        
1 54244U 22153B   26066.13402223 -.00000177  00000+0  00000+0 0  9993
2 54244   0.0185 107.4788 0002991 249.2635 125.3419  1.00272304 12122
GALAXY 35 (G-35)        
1 54741U 22170A   26066.12961598 -.00000164  00000+0  00000+0 0  9994
2 54741   0.0095 178.4956 0002009 171.9506 127.9389  1.00270925 11879
GALAXY 36 (G-36)        
1 54742U 22170B   26066.12405812 -.00000188  00000+0  00000+0 0  9993
2 54742   0.0202 134.0049 0002148 266.8186  79.6596  1.00272349 11755
GALAXY 37 (G-37)        
1 57493U 23112A   26066.14628090  .00000046  00000+0  00000+0 0  9995
2 57493   0.0142 106.2109 0002034 246.2989  97.9905  1.00272255  9513
